<?xml version='1.0' encoding='utf-8'?>
<kml xmlns="http://www.opengis.net/kml/2.2"><Document><name>DataView wells</name><Placemark><name>STATE MAR 035H</name><ExtendedData><Data name="uwi"><value>US42232000350000</value></Data><Data name="api"><value>42330000350000</value></Data><Data name="well_name"><value>STATE MAR 035H</value></Data><Data name="operator"><value>Devon Energy</value></Data><Data name="field"><value>Wolfcamp Play</value></Data><Data name="county"><value>Martin</value></Data><Data name="state"><value>Texas</value></Data><Data name="country"><value>USA</value></Data><Data name="status"><value>ACTIVE</value></Data><Data name="type"><value>HORIZONTAL</value></Data><Data name="spud_date"><value>2016-03-21</value></Data><Data name="completion_date"><value>2016-08-26</value></Data><Data name="td"><value>13443.7</value></Data></ExtendedData><Point><coordinates>-101.5605,32.1277,0</coordinates></Point></Placemark><Placemark><name>STATE MID 027</name><ExtendedData><Data name="uwi"><value>US42447000270000</value></Data><Data name="api"><value>42304000270000</value></Data><Data name="well_name"><value>STATE MID 027</value></Data><Data name="operator"><value>SM Energy</value></Data><Data name="field"><value>Spraberry Trend</value></Data><Data name="county"><value>Midland</value></Data><Data name="state"><value>Texas</value></Data><Data name="country"><value>USA</value></Data><Data name="status"><value>COMPLETED</value></Data><Data name="type"><value>DEVELOPMENT</value></Data><Data name="spud_date"><value>2010-08-15</value></Data><Data name="completion_date"><value>2010-10-28</value></Data><Data name="td"><value>14139.3</value></Data></ExtendedData><Point><coordinates>-102.6232,32.4717,0</coordinates></Point></Placemark><Placemark><name>STATE LOV 005H</name><ExtendedData><Data name="uwi"><value>US42208000050000</value></Data><Data name="api"><value>42133000050000</value></Data><Data name="well_name"><value>STATE LOV 005H</value></Data><Data name="operator"><value>Diamondback Energy</value></Data><Data name="field"><value>Spraberry Trend</value></Data><Data name="county"><value>Loving</value></Data><Data name="state"><value>Texas</value></Data><Data name="country"><value>USA</value></Data><Data name="status"><value>SHUT_IN</value></Data><Data name="type"><value>HORIZONTAL</value></Data><Data name="spud_date"><value>2017-01-21</value></Data><Data name="completion_date"><value>2017-04-18</value></Data><Data name="td"><value>12588.1</value></Data></ExtendedData><Point><coordinates>-102.5149,32.3697,0</coordinates></Point></Placemark><Placemark><name>STATE PEC 043H</name><ExtendedData><Data name="uwi"><value>US42254000430000</value></Data><Data name="api"><value>42495000430000</value></Data><Data name="well_name"><value>STATE PEC 043H</value></Data><Data name="operator"><value>Marathon Oil</value></Data><Data name="field"><value>Wolfcamp Play</value></Data><Data name="county"><value>Pecos</value></Data><Data name="state"><value>Texas</value></Data><Data name="country"><value>USA</value></Data><Data name="status"><value>ABANDONED</value></Data><Data name="type"><value>HORIZONTAL</value></Data><Data name="spud_date"><value>2012-09-18</value></Data><Data name="completion_date"><value>2013-02-26</value></Data><Data name="td"><value>14886.9</value></Data></ExtendedData><Point><coordinates>-102.3986,32.2754,0</coordinates></Point></Placemark><Placemark><name>STATE LOV 006H</name><ExtendedData><Data name="uwi"><value>US42319000060000</value></Data><Data name="api"><value>42399000060000</value></Data><Data name="well_name"><value>STATE LOV 006H</value></Data><Data name="operator"><value>ConocoPhillips</value></Data><Data name="field"><value>Delaware Basin</value></Data><Data name="county"><value>Loving</value></Data><Data name="state"><value>Texas</value></Data><Data name="country"><value>USA</value></Data><Data name="status"><value>ACTIVE</value></Data><Data name="type"><value>HORIZONTAL</value></Data><Data name="spud_date"><value>2014-12-02</value></Data><Data name="completion_date"><value>2015-02-17</value></Data><Data name="td"><value>11566.7</value></Data></ExtendedData><Point><coordinates>-103.1021,32.3467,0</coordinates></Point></Placemark><Placemark><name>STATE REE 044H</name><ExtendedData><Data name="uwi"><value>US42350000440000</value></Data><Data name="api"><value>42315000440000</value></Data><Data name="well_name"><value>STATE REE 044H</value></Data><Data name="operator"><value>Diamondback Energy</value></Data><Data name="field"><value>Bone Spring</value></Data><Data name="county"><value>Reeves</value></Data><Data name="state"><value>Texas</value></Data><Data name="country"><value>USA</value></Data><Data name="status"><value>ACTIVE</value></Data><Data name="type"><value>HORIZONTAL</value></Data><Data name="spud_date"><value>2024-04-03</value></Data><Data name="completion_date"><value>2024-09-24</value></Data><Data name="td"><value>13801.0</value></Data></ExtendedData><Point><coordinates>-101.1372,31.1583,0</coordinates></Point></Placemark><Placemark><name>STATE CRA 018</name><ExtendedData><Data name="uwi"><value>US42306000180000</value></Data><Data name="api"><value>42220000180000</value></Data><Data name="well_name"><value>STATE CRA 018</value></Data><Data name="operator"><value>Coterra Energy</value></Data><Data name="field"><value>Bone Spring</value></Data><Data name="county"><value>Crane</value></Data><Data name="state"><value>Texas</value></Data><Data name="country"><value>USA</value></Data><Data name="status"><value>SHUT_IN</value></Data><Data name="type"><value>OIL</value></Data><Data name="spud_date"><value>2015-07-10</value></Data><Data name="completion_date"><value>2015-11-21</value></Data><Data name="td"><value>12161.6</value></Data></ExtendedData><Point><coordinates>-101.384,31.1798,0</coordinates></Point></Placemark><Placemark><name>STATE CRA 009</name><ExtendedData><Data name="uwi"><value>US42100000090000</value></Data><Data name="api"><value>42371000090000</value></Data><Data name="well_name"><value>STATE CRA 009</value></Data><Data name="operator"><value>Pioneer Natural Resources</value></Data><Data name="field"><value>Delaware Basin</value></Data><Data name="county"><value>Crane</value></Data><Data name="state"><value>Texas</value></Data><Data name="country"><value>USA</value></Data><Data name="status"><value>ACTIVE</value></Data><Data name="type"><value>DEVELOPMENT</value></Data><Data name="spud_date"><value>2012-07-05</value></Data><Data name="completion_date"><value>2012-12-30</value></Data><Data name="td"><value>10540.9</value></Data></ExtendedData><Point><coordinates>-102.7899,31.8984,0</coordinates></Point></Placemark><Placemark><name>STATE CRA 011H</name><ExtendedData><Data name="uwi"><value>US42443000110000</value></Data><Data name="api"><value>42304000110000</value></Data><Data name="well_name"><value>STATE CRA 011H</value></Data><Data name="operator"><value>EOG Resources</value></Data><Data name="field"><value>Midland Basin</value></Data><Data name="county"><value>Crane</value></Data><Data name="state"><value>Texas</value></Data><Data name="country"><value>USA</value></Data><Data name="status"><value>SHUT_IN</value></Data><Data name="type"><value>HORIZONTAL</value></Data><Data name="spud_date"><value>2021-08-10</value></Data><Data name="completion_date"><value>2021-12-05</value></Data><Data name="td"><value>8847.0</value></Data></ExtendedData><Point><coordinates>-102.9666,31.9748,0</coordinates></Point></Placemark><Placemark><name>STATE ECT 029</name><ExtendedData><Data name="uwi"><value>US42477000290000</value></Data><Data name="api"><value>42479000290000</value></Data><Data name="well_name"><value>STATE ECT 029</value></Data><Data name="operator"><value>ConocoPhillips</value></Data><Data name="field"><value>Spraberry Trend</value></Data><Data name="county"><value>Ector</value></Data><Data name="state"><value>Texas</value></Data><Data name="country"><value>USA</value></Data><Data name="status"><value>ABANDONED</value></Data><Data name="type"><value>OIL</value></Data><Data name="spud_date"><value>2011-07-28</value></Data><Data name="completion_date"><value>2011-12-20</value></Data><Data name="td"><value>14445.4</value></Data></ExtendedData><Point><coordinates>-103.2252,32.0059,0</coordinates></Point></Placemark><Placemark><name>STATE WAR 024</name><ExtendedData><Data name="uwi"><value>US42120000240000</value></Data><Data name="api"><value>42286000240000</value></Data><Data name="well_name"><value>STATE WAR 024</value></Data><Data name="operator"><value>SM Energy</value></Data><Data name="field"><value>Delaware Basin</value></Data><Data name="county"><value>Ward</value></Data><Data name="state"><value>Texas</value></Data><Data name="country"><value>USA</value></Data><Data name="status"><value>ACTIVE</value></Data><Data name="type"><value>DEVELOPMENT</value></Data><Data name="spud_date"><value>2015-08-07</value></Data><Data name="completion_date"><value>2015-12-30</value></Data><Data name="td"><value>8719.6</value></Data></ExtendedData><Point><coordinates>-103.7647,32.3484,0</coordinates></Point></Placemark><Placemark><name>STATE REE 031</name><ExtendedData><Data name="uwi"><value>US42396000310000</value></Data><Data name="api"><value>42320000310000</value></Data><Data name="well_name"><value>STATE REE 031</value></Data><Data name="operator"><value>Diamondback Energy</value></Data><Data name="field"><value>Midland Basin</value></Data><Data name="county"><value>Reeves</value></Data><Data name="state"><value>Texas</value></Data><Data name="country"><value>USA</value></Data><Data name="status"><value>SHUT_IN</value></Data><Data name="type"><value>DEVELOPMENT</value></Data><Data name="spud_date"><value>2019-11-29</value></Data><Data name="completion_date"><value>2020-03-24</value></Data><Data name="td"><value>12729.4</value></Data></ExtendedData><Point><coordinates>-103.3721,31.91,0</coordinates></Point></Placemark><Placemark><name>STATE LOV 008</name><ExtendedData><Data name="uwi"><value>US42468000080000</value></Data><Data name="api"><value>42469000080000</value></Data><Data name="well_name"><value>STATE LOV 008</value></Data><Data name="operator"><value>SM Energy</value></Data><Data name="field"><value>Delaware Basin</value></Data><Data name="county"><value>Loving</value></Data><Data name="state"><value>Texas</value></Data><Data name="country"><value>USA</value></Data><Data name="status"><value>COMPLETED</value></Data><Data name="type"><value>DEVELOPMENT</value></Data><Data name="spud_date"><value>2014-01-03</value></Data><Data name="completion_date"><value>2014-05-07</value></Data><Data name="td"><value>14388.4</value></Data></ExtendedData><Point><coordinates>-102.7479,31.3951,0</coordinates></Point></Placemark><Placemark><name>STATE AND 013H</name><ExtendedData><Data name="uwi"><value>US42342000130000</value></Data><Data name="api"><value>42395000130000</value></Data><Data name="well_name"><value>STATE AND 013H</value></Data><Data name="operator"><value>Coterra Energy</value></Data><Data name="field"><value>Wolfcamp Play</value></Data><Data name="county"><value>Andrews</value></Data><Data name="state"><value>Texas</value></Data><Data name="country"><value>USA</value></Data><Data name="status"><value>ABANDONED</value></Data><Data name="type"><value>HORIZONTAL</value></Data><Data name="spud_date"><value>2019-02-17</value></Data><Data name="completion_date"><value>2019-05-12</value></Data><Data name="td"><value>8660.3</value></Data></ExtendedData><Point><coordinates>-102.8446,31.3645,0</coordinates></Point></Placemark><Placemark><name>STATE ECT 037</name><ExtendedData><Data name="uwi"><value>US42399000370000</value></Data><Data name="api"><value>42494000370000</value></Data><Data name="well_name"><value>STATE ECT 037</value></Data><Data name="operator"><value>Coterra Energy</value></Data><Data name="field"><value>Wolfcamp Play</value></Data><Data name="county"><value>Ector</value></Data><Data name="state"><value>Texas</value></Data><Data name="country"><value>USA</value></Data><Data name="status"><value>ACTIVE</value></Data><Data name="type"><value>EXPLORATORY</value></Data><Data name="spud_date"><value>2022-11-30</value></Data><Data name="completion_date"><value>2023-03-18</value></Data><Data name="td"><value>11338.9</value></Data></ExtendedData><Point><coordinates>-104.4316,32.4191,0</coordinates></Point></Placemark><Placemark><name>STATE MAR 002</name><ExtendedData><Data name="uwi"><value>US42473000020000</value></Data><Data name="api"><value>42122000020000</value></Data><Data name="well_name"><value>STATE MAR 002</value></Data><Data name="operator"><value>SM Energy</value></Data><Data name="field"><value>Delaware Basin</value></Data><Data name="county"><value>Martin</value></Data><Data name="state"><value>Texas</value></Data><Data name="country"><value>USA</value></Data><Data name="status"><value>ABANDONED</value></Data><Data name="type"><value>OIL</value></Data><Data name="spud_date"><value>2018-06-28</value></Data><Data name="completion_date"><value>2018-09-06</value></Data><Data name="td"><value>11864.3</value></Data></ExtendedData><Point><coordinates>-104.0631,31.6891,0</coordinates></Point></Placemark><Placemark><name>STATE WAR 049</name><ExtendedData><Data name="uwi"><value>US42453000490000</value></Data><Data name="api"><value>42490000490000</value></Data><Data name="well_name"><value>STATE WAR 049</value></Data><Data name="operator"><value>Devon Energy</value></Data><Data name="field"><value>Midland Basin</value></Data><Data name="county"><value>Ward</value></Data><Data name="state"><value>Texas</value></Data><Data name="country"><value>USA</value></Data><Data name="status"><value>ACTIVE</value></Data><Data name="type"><value>DEVELOPMENT</value></Data><Data name="spud_date"><value>2020-11-10</value></Data><Data name="completion_date"><value>2021-02-13</value></Data><Data name="td"><value>13072.1</value></Data></ExtendedData><Point><coordinates>-103.7427,31.2777,0</coordinates></Point></Placemark><Placemark><name>STATE AND 036H</name><ExtendedData><Data name="uwi"><value>US42141000360000</value></Data><Data name="api"><value>42376000360000</value></Data><Data name="well_name"><value>STATE AND 036H</value></Data><Data name="operator"><value>EOG Resources</value></Data><Data name="field"><value>Bone Spring</value></Data><Data name="county"><value>Andrews</value></Data><Data name="state"><value>Texas</value></Data><Data name="country"><value>USA</value></Data><Data name="status"><value>ACTIVE</value></Data><Data name="type"><value>HORIZONTAL</value></Data><Data name="spud_date"><value>2013-06-05</value></Data><Data name="completion_date"><value>2013-11-02</value></Data><Data name="td"><value>9497.7</value></Data></ExtendedData><Point><coordinates>-103.6906,31.2076,0</coordinates></Point></Placemark><Placemark><name>STATE MAR 017</name><ExtendedData><Data name="uwi"><value>US42482000170000</value></Data><Data name="api"><value>42131000170000</value></Data><Data name="well_name"><value>STATE MAR 017</value></Data><Data name="operator"><value>Pioneer Natural Resources</value></Data><Data name="field"><value>Bone Spring</value></Data><Data name="county"><value>Martin</value></Data><Data name="state"><value>Texas</value></Data><Data name="country"><value>USA</value></Data><Data name="status"><value>COMPLETED</value></Data><Data name="type"><value>DEVELOPMENT</value></Data><Data name="spud_date"><value>2020-09-10</value></Data><Data name="completion_date"><value>2021-01-12</value></Data><Data name="td"><value>14435.7</value></Data></ExtendedData><Point><coordinates>-104.3245,31.4704,0</coordinates></Point></Placemark><Placemark><name>STATE WAR 012</name><ExtendedData><Data name="uwi"><value>US42423000120000</value></Data><Data name="api"><value>42462000120000</value></Data><Data name="well_name"><value>STATE WAR 012</value></Data><Data name="operator"><value>Devon Energy</value></Data><Data name="field"><value>Wolfcamp Play</value></Data><Data name="county"><value>Ward</value></Data><Data name="state"><value>Texas</value></Data><Data name="country"><value>USA</value></Data><Data name="status"><value>ACTIVE</value></Data><Data name="type"><value>DEVELOPMENT</value></Data><Data name="spud_date"><value>2010-09-15</value></Data><Data name="completion_date"><value>2011-03-04</value></Data><Data name="td"><value>10313.0</value></Data></ExtendedData><Point><coordinates>-104.2641,31.0883,0</coordinates></Point></Placemark></Document></kml>