{"type": "FeatureCollection", "features": [{"type": "Feature", "geometry": {"type": "Point", "coordinates": [-101.5605, 32.1277]}, "properties": {"uwi": "US42232000350000", "api": "42330000350000", "well_name": "STATE MAR 035H", "well_num": null, "operator": "Devon Energy", "field": "Wolfcamp Play", "county": "Martin", "state": "Texas", "country": "USA", "bottom_lat": null, "bottom_lon": null, "status": "ACTIVE", "type": "HORIZONTAL", "spud_date": "2016-03-21", "completion_date": "2016-08-26", "plug_date": null, "td": 13443.7, "tvd": null, "ground_elev": null, "kb_elev": null, "formation": null}}, {"type": "Feature", "geometry": {"type": "Point", "coordinates": [-102.6232, 32.4717]}, "properties": {"uwi": "US42447000270000", "api": "42304000270000", "well_name": "STATE MID 027", "well_num": null, "operator": "SM Energy", "field": "Spraberry Trend", "county": "Midland", "state": "Texas", "country": "USA", "bottom_lat": null, "bottom_lon": null, "status": "COMPLETED", "type": "DEVELOPMENT", "spud_date": "2010-08-15", "completion_date": "2010-10-28", "plug_date": null, "td": 14139.3, "tvd": null, "ground_elev": null, "kb_elev": null, "formation": null}}, {"type": "Feature", "geometry": {"type": "Point", "coordinates": [-102.5149, 32.3697]}, "properties": {"uwi": "US42208000050000", "api": "42133000050000", "well_name": "STATE LOV 005H", "well_num": null, "operator": "Diamondback Energy", "field": "Spraberry Trend", "county": "Loving", "state": "Texas", "country": "USA", "bottom_lat": null, "bottom_lon": null, "status": "SHUT_IN", "type": "HORIZONTAL", "spud_date": "2017-01-21", "completion_date": "2017-04-18", "plug_date": null, "td": 12588.1, "tvd": null, "ground_elev": null, "kb_elev": null, "formation": null}}, {"type": "Feature", "geometry": {"type": "Point", "coordinates": [-102.3986, 32.2754]}, "properties": {"uwi": "US42254000430000", "api": "42495000430000", "well_name": "STATE PEC 043H", "well_num": null, "operator": "Marathon Oil", "field": "Wolfcamp Play", "county": "Pecos", "state": "Texas", "country": "USA", "bottom_lat": null, "bottom_lon": null, "status": "ABANDONED", "type": "HORIZONTAL", "spud_date": "2012-09-18", "completion_date": "2013-02-26", "plug_date": null, "td": 14886.9, "tvd": null, "ground_elev": null, "kb_elev": null, "formation": null}}, {"type": "Feature", "geometry": {"type": "Point", "coordinates": [-103.1021, 32.3467]}, "properties": {"uwi": "US42319000060000", "api": "42399000060000", "well_name": "STATE LOV 006H", "well_num": null, "operator": "ConocoPhillips", "field": "Delaware Basin", "county": "Loving", "state": "Texas", "country": "USA", "bottom_lat": null, "bottom_lon": null, "status": "ACTIVE", "type": "HORIZONTAL", "spud_date": "2014-12-02", "completion_date": "2015-02-17", "plug_date": null, "td": 11566.7, "tvd": null, "ground_elev": null, "kb_elev": null, "formation": null}}, {"type": "Feature", "geometry": {"type": "Point", "coordinates": [-101.1372, 31.1583]}, "properties": {"uwi": "US42350000440000", "api": "42315000440000", "well_name": "STATE REE 044H", "well_num": null, "operator": "Diamondback Energy", "field": "Bone Spring", "county": "Reeves", "state": "Texas", "country": "USA", "bottom_lat": null, "bottom_lon": null, "status": "ACTIVE", "type": "HORIZONTAL", "spud_date": "2024-04-03", "completion_date": "2024-09-24", "plug_date": null, "td": 13801.0, "tvd": null, "ground_elev": null, "kb_elev": null, "formation": null}}, {"type": "Feature", "geometry": {"type": "Point", "coordinates": [-101.384, 31.1798]}, "properties": {"uwi": "US42306000180000", "api": "42220000180000", "well_name": "STATE CRA 018", "well_num": null, "operator": "Coterra Energy", "field": "Bone Spring", "county": "Crane", "state": "Texas", "country": "USA", "bottom_lat": null, "bottom_lon": null, "status": "SHUT_IN", "type": "OIL", "spud_date": "2015-07-10", "completion_date": "2015-11-21", "plug_date": null, "td": 12161.6, "tvd": null, "ground_elev": null, "kb_elev": null, "formation": null}}, {"type": "Feature", "geometry": {"type": "Point", "coordinates": [-102.7899, 31.8984]}, "properties": {"uwi": "US42100000090000", "api": "42371000090000", "well_name": "STATE CRA 009", "well_num": null, "operator": "Pioneer Natural Resources", "field": "Delaware Basin", "county": "Crane", "state": "Texas", "country": "USA", "bottom_lat": null, "bottom_lon": null, "status": "ACTIVE", "type": "DEVELOPMENT", "spud_date": "2012-07-05", "completion_date": "2012-12-30", "plug_date": null, "td": 10540.9, "tvd": null, "ground_elev": null, "kb_elev": null, "formation": null}}, {"type": "Feature", "geometry": {"type": "Point", "coordinates": [-102.9666, 31.9748]}, "properties": {"uwi": "US42443000110000", "api": "42304000110000", "well_name": "STATE CRA 011H", "well_num": null, "operator": "EOG Resources", "field": "Midland Basin", "county": "Crane", "state": "Texas", "country": "USA", "bottom_lat": null, "bottom_lon": null, "status": "SHUT_IN", "type": "HORIZONTAL", "spud_date": "2021-08-10", "completion_date": "2021-12-05", "plug_date": null, "td": 8847.0, "tvd": null, "ground_elev": null, "kb_elev": null, "formation": null}}, {"type": "Feature", "geometry": {"type": "Point", "coordinates": [-103.2252, 32.0059]}, "properties": {"uwi": "US42477000290000", "api": "42479000290000", "well_name": "STATE ECT 029", "well_num": null, "operator": "ConocoPhillips", "field": "Spraberry Trend", "county": "Ector", "state": "Texas", "country": "USA", "bottom_lat": null, "bottom_lon": null, "status": "ABANDONED", "type": "OIL", "spud_date": "2011-07-28", "completion_date": "2011-12-20", "plug_date": null, "td": 14445.4, "tvd": null, "ground_elev": null, "kb_elev": null, "formation": null}}, {"type": "Feature", "geometry": {"type": "Point", "coordinates": [-103.7647, 32.3484]}, "properties": {"uwi": "US42120000240000", "api": "42286000240000", "well_name": "STATE WAR 024", "well_num": null, "operator": "SM Energy", "field": "Delaware Basin", "county": "Ward", "state": "Texas", "country": "USA", "bottom_lat": null, "bottom_lon": null, "status": "ACTIVE", "type": "DEVELOPMENT", "spud_date": "2015-08-07", "completion_date": "2015-12-30", "plug_date": null, "td": 8719.6, "tvd": null, "ground_elev": null, "kb_elev": null, "formation": null}}, {"type": "Feature", "geometry": {"type": "Point", "coordinates": [-103.3721, 31.91]}, "properties": {"uwi": "US42396000310000", "api": "42320000310000", "well_name": "STATE REE 031", "well_num": null, "operator": "Diamondback Energy", "field": "Midland Basin", "county": "Reeves", "state": "Texas", "country": "USA", "bottom_lat": null, "bottom_lon": null, "status": "SHUT_IN", "type": "DEVELOPMENT", "spud_date": "2019-11-29", "completion_date": "2020-03-24", "plug_date": null, "td": 12729.4, "tvd": null, "ground_elev": null, "kb_elev": null, "formation": null}}, {"type": "Feature", "geometry": {"type": "Point", "coordinates": [-102.7479, 31.3951]}, "properties": {"uwi": "US42468000080000", "api": "42469000080000", "well_name": "STATE LOV 008", "well_num": null, "operator": "SM Energy", "field": "Delaware Basin", "county": "Loving", "state": "Texas", "country": "USA", "bottom_lat": null, "bottom_lon": null, "status": "COMPLETED", "type": "DEVELOPMENT", "spud_date": "2014-01-03", "completion_date": "2014-05-07", "plug_date": null, "td": 14388.4, "tvd": null, "ground_elev": null, "kb_elev": null, "formation": null}}, {"type": "Feature", "geometry": {"type": "Point", "coordinates": [-102.8446, 31.3645]}, "properties": {"uwi": "US42342000130000", "api": "42395000130000", "well_name": "STATE AND 013H", "well_num": null, "operator": "Coterra Energy", "field": "Wolfcamp Play", "county": "Andrews", "state": "Texas", "country": "USA", "bottom_lat": null, "bottom_lon": null, "status": "ABANDONED", "type": "HORIZONTAL", "spud_date": "2019-02-17", "completion_date": "2019-05-12", "plug_date": null, "td": 8660.3, "tvd": null, "ground_elev": null, "kb_elev": null, "formation": null}}, {"type": "Feature", "geometry": {"type": "Point", "coordinates": [-104.4316, 32.4191]}, "properties": {"uwi": "US42399000370000", "api": "42494000370000", "well_name": "STATE ECT 037", "well_num": null, "operator": "Coterra Energy", "field": "Wolfcamp Play", "county": "Ector", "state": "Texas", "country": "USA", "bottom_lat": null, "bottom_lon": null, "status": "ACTIVE", "type": "EXPLORATORY", "spud_date": "2022-11-30", "completion_date": "2023-03-18", "plug_date": null, "td": 11338.9, "tvd": null, "ground_elev": null, "kb_elev": null, "formation": null}}, {"type": "Feature", "geometry": {"type": "Point", "coordinates": [-104.0631, 31.6891]}, "properties": {"uwi": "US42473000020000", "api": "42122000020000", "well_name": "STATE MAR 002", "well_num": null, "operator": "SM Energy", "field": "Delaware Basin", "county": "Martin", "state": "Texas", "country": "USA", "bottom_lat": null, "bottom_lon": null, "status": "ABANDONED", "type": "OIL", "spud_date": "2018-06-28", "completion_date": "2018-09-06", "plug_date": null, "td": 11864.3, "tvd": null, "ground_elev": null, "kb_elev": null, "formation": null}}, {"type": "Feature", "geometry": {"type": "Point", "coordinates": [-103.7427, 31.2777]}, "properties": {"uwi": "US42453000490000", "api": "42490000490000", "well_name": "STATE WAR 049", "well_num": null, "operator": "Devon Energy", "field": "Midland Basin", "county": "Ward", "state": "Texas", "country": "USA", "bottom_lat": null, "bottom_lon": null, "status": "ACTIVE", "type": "DEVELOPMENT", "spud_date": "2020-11-10", "completion_date": "2021-02-13", "plug_date": null, "td": 13072.1, "tvd": null, "ground_elev": null, "kb_elev": null, "formation": null}}, {"type": "Feature", "geometry": {"type": "Point", "coordinates": [-103.6906, 31.2076]}, "properties": {"uwi": "US42141000360000", "api": "42376000360000", "well_name": "STATE AND 036H", "well_num": null, "operator": "EOG Resources", "field": "Bone Spring", "county": "Andrews", "state": "Texas", "country": "USA", "bottom_lat": null, "bottom_lon": null, "status": "ACTIVE", "type": "HORIZONTAL", "spud_date": "2013-06-05", "completion_date": "2013-11-02", "plug_date": null, "td": 9497.7, "tvd": null, "ground_elev": null, "kb_elev": null, "formation": null}}, {"type": "Feature", "geometry": {"type": "Point", "coordinates": [-104.3245, 31.4704]}, "properties": {"uwi": "US42482000170000", "api": "42131000170000", "well_name": "STATE MAR 017", "well_num": null, "operator": "Pioneer Natural Resources", "field": "Bone Spring", "county": "Martin", "state": "Texas", "country": "USA", "bottom_lat": null, "bottom_lon": null, "status": "COMPLETED", "type": "DEVELOPMENT", "spud_date": "2020-09-10", "completion_date": "2021-01-12", "plug_date": null, "td": 14435.7, "tvd": null, "ground_elev": null, "kb_elev": null, "formation": null}}, {"type": "Feature", "geometry": {"type": "Point", "coordinates": [-104.2641, 31.0883]}, "properties": {"uwi": "US42423000120000", "api": "42462000120000", "well_name": "STATE WAR 012", "well_num": null, "operator": "Devon Energy", "field": "Wolfcamp Play", "county": "Ward", "state": "Texas", "country": "USA", "bottom_lat": null, "bottom_lon": null, "status": "ACTIVE", "type": "DEVELOPMENT", "spud_date": "2010-09-15", "completion_date": "2011-03-04", "plug_date": null, "td": 10313.0, "tvd": null, "ground_elev": null, "kb_elev": null, "formation": null}}]}